[{"OBJECT_NAME":"STARLINK-32400","OBJECT_ID":"2024-193J","EPOCH":"2026-03-09T11:10:56.002944","MEAN_MOTION":15.30157214,"ECCENTRICITY":0.00010453,"INCLINATION":53.1604,"RA_OF_ASC_NODE":89.8226,"ARG_OF_PERICENTER":79.4954,"MEAN_ANOMALY":280.6164,"EPHEMERIS_TYPE":0,"CLASSIFICATION_TYPE":"U","NORAD_CAT_ID":61669,"ELEMENT_SET_NO":999,"REV_AT_EPOCH":7652,"BSTAR":-0.00015270135,"MEAN_MOTION_DOT":-4.872e-5,"MEAN_MOTION_DDOT":0},{"OBJECT_NAME":"CERISE","OBJECT_ID":"1995-033B","EPOCH":"2026-03-09T23:11:27.589056","MEAN_MOTION":15.32047731,"ECCENTRICITY":0.00057118,"INCLINATION":98.325,"RA_OF_ASC_NODE":273.5192,"ARG_OF_PERICENTER":211.8754,"MEAN_ANOMALY":148.214,"EPHEMERIS_TYPE":0,"CLASSIFICATION_TYPE":"U","NORAD_CAT_ID":23606,"ELEMENT_SET_NO":999,"REV_AT_EPOCH":66468,"BSTAR":0.00062940675,"MEAN_MOTION_DOT":0.00019422,"MEAN_MOTION_DDOT":0}]
